{
  "type": "FeatureCollection",
  "features": [
    {
      "type": "Feature",
      "properties": {
        "norad_id": 34459,
        "name": "COSMOS 2251 DEB",
        "group": "cosmos-2251-debris",
        "lat": 64.77684211072706,
        "lon": 35.533457085480045,
        "alt_km": 1002.1567700698934,
        "timestamp": "2025-12-13T10:41:26.160553+00:00",
        "meta_object_name": "COSMOS 2251 DEB",
        "meta_object_id": "1993-036TC",
        "meta_epoch": "2025-12-12T23:52:54.592320",
        "meta_mean_motion": 14.00500778,
        "meta_eccentricity": 0.01920625,
        "meta_inclination": 74.0792,
        "meta_ra_of_asc_node": 253.6074,
        "meta_arg_of_pericenter": 323.3326,
        "meta_mean_anomaly": 35.4788,
        "meta_ephemeris_type": 0,
        "meta_classification_type": "U",
        "meta_norad_cat_id": 34459,
        "meta_element_set_no": 999,
        "meta_rev_at_epoch": 85715,
        "meta_bstar": 0.00077048441,
        "meta_mean_motion_dot": 1.317e-05,
        "meta_mean_motion_ddot": 0,
        "tle_line1": "1 34459U 93036TC  25346.99507630  .00001317  00000+0  77048-3 0  9995",
        "tle_line2": "2 34459  74.0792 253.6074 0192062 323.3326  35.4788 14.00500778857158"
      },
      "geometry": {
        "type": "Point",
        "coordinates": [
          35.533457085480045,
          64.77684211072706
        ]
      }
    },
    {
      "type": "Feature",
      "properties": {
        "norad_id": 34464,
        "name": "COSMOS 2251 DEB",
        "group": "cosmos-2251-debris",
        "lat": -28.177863259541148,
        "lon": -94.3769631137097,
        "alt_km": 482.20118853293116,
        "timestamp": "2025-12-13T10:41:26.160564+00:00",
        "meta_object_name": "COSMOS 2251 DEB",
        "meta_object_id": "1993-036TH",
        "meta_epoch": "2025-12-12T16:28:50.095488",
        "meta_mean_motion": 15.27039934,
        "meta_eccentricity": 0.0015841,
        "meta_inclination": 73.989,
        "meta_ra_of_asc_node": 78.3859,
        "meta_arg_of_pericenter": 257.1412,
        "meta_mean_anomaly": 102.802,
        "meta_ephemeris_type": 0,
        "meta_classification_type": "U",
        "meta_norad_cat_id": 34464,
        "meta_element_set_no": 999,
        "meta_rev_at_epoch": 89839,
        "meta_bstar": 0.0036824345,
        "meta_mean_motion_dot": 0.00099363,
        "meta_mean_motion_ddot": 0,
        "tle_line1": "1 34464U 93036TH  25346.68669092  .00099363  00000+0  36824-2 0  9992",
        "tle_line2": "2 34464  73.9890  78.3859 0015841 257.1412 102.8020 15.27039934898393"
      },
      "geometry": {
        "type": "Point",
        "coordinates": [
          -94.3769631137097,
          -28.177863259541148
        ]
      }
    },
    {
      "type": "Feature",
      "properties": {
        "norad_id": 34468,
        "name": "COSMOS 2251 DEB",
        "group": "cosmos-2251-debris",
        "lat": -48.897163358019554,
        "lon": -44.9335737464305,
        "alt_km": 692.3681431235909,
        "timestamp": "2025-12-13T10:41:26.160573+00:00",
        "meta_object_name": "COSMOS 2251 DEB",
        "meta_object_id": "1993-036TM",
        "meta_epoch": "2025-12-12T18:41:29.154624",
        "meta_mean_motion": 14.47625609,
        "meta_eccentricity": 0.00763516,
        "meta_inclination": 74.0128,
        "meta_ra_of_asc_node": 117.1306,
        "meta_arg_of_pericenter": 262.0573,
        "meta_mean_anomaly": 97.1916,
        "meta_ephemeris_type": 0,
        "meta_classification_type": "U",
        "meta_norad_cat_id": 34468,
        "meta_element_set_no": 999,
        "meta_rev_at_epoch": 88462,
        "meta_bstar": 0.00059670717,
        "meta_mean_motion_dot": 2.252e-05,
        "meta_mean_motion_ddot": 0,
        "tle_line1": "1 34468U 93036TM  25346.77880966  .00002252  00000+0  59671-3 0  9998",
        "tle_line2": "2 34468  74.0128 117.1306 0076351 262.0573  97.1916 14.47625609884620"
      },
      "geometry": {
        "type": "Point",
        "coordinates": [
          -44.9335737464305,
          -48.897163358019554
        ]
      }
    },
    {
      "type": "Feature",
      "properties": {
        "norad_id": 34472,
        "name": "COSMOS 2251 DEB",
        "group": "cosmos-2251-debris",
        "lat": 55.41456861962801,
        "lon": 121.4321646584565,
        "alt_km": 1229.8891478128135,
        "timestamp": "2025-12-13T10:41:26.160583+00:00",
        "meta_object_name": "COSMOS 2251 DEB",
        "meta_object_id": "1993-036TR",
        "meta_epoch": "2025-12-10T17:33:33.413472",
        "meta_mean_motion": 13.70324681,
        "meta_eccentricity": 0.03280455,
        "meta_inclination": 74.083,
        "meta_ra_of_asc_node": 101.446,
        "meta_arg_of_pericenter": 232.9036,
        "meta_mean_anomaly": 124.1688,
        "meta_ephemeris_type": 0,
        "meta_classification_type": "U",
        "meta_norad_cat_id": 34472,
        "meta_element_set_no": 999,
        "meta_rev_at_epoch": 83699,
        "meta_bstar": 0.0010864797,
        "meta_mean_motion_dot": 1.379e-05,
        "meta_mean_motion_ddot": 0,
        "tle_line1": "1 34472U 93036TR  25344.73163673  .00001379  00000+0  10865-2 0  9996",
        "tle_line2": "2 34472  74.0830 101.4460 0328045 232.9036 124.1688 13.70324681836997"
      },
      "geometry": {
        "type": "Point",
        "coordinates": [
          121.4321646584565,
          55.41456861962801
        ]
      }
    },
    {
      "type": "Feature",
      "properties": {
        "norad_id": 34474,
        "name": "COSMOS 2251 DEB",
        "group": "cosmos-2251-debris",
        "lat": -69.4228424690216,
        "lon": -84.54893731452547,
        "alt_km": 937.9509517165025,
        "timestamp": "2025-12-13T10:41:26.160594+00:00",
        "meta_object_name": "COSMOS 2251 DEB",
        "meta_object_id": "1993-036TT",
        "meta_epoch": "2025-12-12T23:14:26.128608",
        "meta_mean_motion": 14.06415691,
        "meta_eccentricity": 0.01983571,
        "meta_inclination": 74.0779,
        "meta_ra_of_asc_node": 325.7794,
        "meta_arg_of_pericenter": 39.588,
        "meta_mean_anomaly": 351.1252,
        "meta_ephemeris_type": 0,
        "meta_classification_type": "U",
        "meta_norad_cat_id": 34474,
        "meta_element_set_no": 999,
        "meta_rev_at_epoch": 85512,
        "meta_bstar": 0.0027586021,
        "meta_mean_motion_dot": 5.425e-05,
        "meta_mean_motion_ddot": 0,
        "tle_line1": "1 34474U 93036TT  25346.96835797  .00005425  00000+0  27586-2 0  9992",
        "tle_line2": "2 34474  74.0779 325.7794 0198357  39.5880 351.1252 14.06415691855128"
      },
      "geometry": {
        "type": "Point",
        "coordinates": [
          -84.54893731452547,
          -69.4228424690216
        ]
      }
    },
    {
      "type": "Feature",
      "properties": {
        "norad_id": 34476,
        "name": "COSMOS 2251 DEB",
        "group": "cosmos-2251-debris",
        "lat": -11.232533997303847,
        "lon": -95.42052462671127,
        "alt_km": 1030.8131700277654,
        "timestamp": "2025-12-13T10:41:26.160604+00:00",
        "meta_object_name": "COSMOS 2251 DEB",
        "meta_object_id": "1993-036TV",
        "meta_epoch": "2025-12-12T05:56:21.402816",
        "meta_mean_motion": 13.82020455,
        "meta_eccentricity": 0.03202691,
        "meta_inclination": 74.0049,
        "meta_ra_of_asc_node": 83.3324,
        "meta_arg_of_pericenter": 303.0021,
        "meta_mean_anomaly": 54.0695,
        "meta_ephemeris_type": 0,
        "meta_classification_type": "U",
        "meta_norad_cat_id": 34476,
        "meta_element_set_no": 999,
        "meta_rev_at_epoch": 83631,
        "meta_bstar": 0.0050228987,
        "meta_mean_motion_dot": 7.967e-05,
        "meta_mean_motion_ddot": 0,
        "tle_line1": "1 34476U 93036TV  25346.24746994  .00007967  00000+0  50229-2 0  9998",
        "tle_line2": "2 34476  74.0049  83.3324 0320269 303.0021  54.0695 13.82020455836314"
      },
      "geometry": {
        "type": "Point",
        "coordinates": [
          -95.42052462671127,
          -11.232533997303847
        ]
      }
    },
    {
      "type": "Feature",
      "properties": {
        "norad_id": 34477,
        "name": "COSMOS 2251 DEB",
        "group": "cosmos-2251-debris",
        "lat": -71.3139146423404,
        "lon": 9.993193171566777,
        "alt_km": 660.6330890637964,
        "timestamp": "2025-12-13T10:41:26.160614+00:00",
        "meta_object_name": "COSMOS 2251 DEB",
        "meta_object_id": "1993-036TW",
        "meta_epoch": "2025-12-12T22:25:34.053888",
        "meta_mean_motion": 14.56867004,
        "meta_eccentricity": 0.0076902,
        "meta_inclination": 73.9791,
        "meta_ra_of_asc_node": 69.1301,
        "meta_arg_of_pericenter": 256.2479,
        "meta_mean_anomaly": 224.0715,
        "meta_ephemeris_type": 0,
        "meta_classification_type": "U",
        "meta_norad_cat_id": 34477,
        "meta_element_set_no": 999,
        "meta_rev_at_epoch": 88628,
        "meta_bstar": 0.0012130735,
        "meta_mean_motion_dot": 5.635e-05,
        "meta_mean_motion_ddot": 0,
        "tle_line1": "1 34477U 93036TW  25346.93442192  .00005635  00000+0  12131-2 0  9998",
        "tle_line2": "2 34477  73.9791  69.1301 0076902 256.2479 224.0715 14.56867004886286"
      },
      "geometry": {
        "type": "Point",
        "coordinates": [
          9.993193171566777,
          -71.3139146423404
        ]
      }
    }
  ]
}